ONEWEB-0389             
1 50469U 21132A   26178.52603727  .00000071  00000+0  15049-3 0  9998
2 50469  87.9131   3.8108 0002021  80.1937 279.9423 13.17649379219444
ONEWEB-0390             
1 50470U 21132B   26178.52772434  .00000147  00000+0  34548-3 0  9991
2 50470  87.9133   3.8115 0002073  93.1658 266.9711 13.17650061219443
ONEWEB-0391             
1 50471U 21132C   26178.52941301  .00000069  00000+0  14567-3 0  9995
2 50471  87.9134   3.8209 0002551  77.5074 282.6343 13.17649375219440
ONEWEB-0392             
1 50472U 21132D   26178.48385729  .00000041  00000+0  73149-4 0  9999
2 50472  87.9141   3.7991 0002085  80.2942 279.8425 13.17649068219474
ONEWEB-0393             
1 50473U 21132E   26178.45937297  .00000027  00000+0  35137-4 0  9999
2 50473  87.9132   3.8202 0001963  85.0160 275.1196 13.17650546219466
ONEWEB-0394             
1 50474U 21132F   26178.41730993  .00000117  00000+0  26373-3 0  9991
2 50474  87.9176 333.4067 0001749  91.2369 268.8963 13.18688313222940
ONEWEB-0395             
1 50475U 21132G   26178.54341270  .00000535  00000+0  14725-2 0  9993
2 50475  87.8879  19.0049 0002086  87.8942 272.2425 13.11416583217071
ONEWEB-0396             
1 50476U 21132H   26178.48645012 -.00000002  00000+0 -37862-4 0  9998
2 50476  87.9179 333.4057 0001838  89.2226 270.9117 13.18685729222990
ONEWEB-0397             
1 50477U 21132J   26178.50162521  .00000001  00000+0 -31278-4 0  9994
2 50477  87.9177 333.4028 0001720  88.6156 271.5173 13.18686052222979
ONEWEB-0398             
1 50478U 21132K   26178.51118157 -.00000451  00000+0 -13080-2 0  9991
2 50478  87.8889  19.0030 0002081  93.4610 266.6756 13.11417145216961
ONEWEB-0399             
1 50479U 21132L   26178.49762285 -.00000292  00000+0 -86112-3 0  9996
2 50479  87.8886  19.0167 0001949  73.5017 286.6324 13.11415719216959
ONEWEB-0400             
1 50480U 21132M   26178.47970679  .00000090  00000+0  19591-3 0  9995
2 50480  87.9179 333.3970 0002011  97.9741 262.1619 13.18686266222964
ONEWEB-0401             
1 50481U 21132N   26178.44935650  .00000112  00000+0  25164-3 0  9991
2 50481  87.9179 333.4003 0001597  94.9108 265.2207 13.18685844222963
ONEWEB-0402             
1 50482U 21132P   26178.48813909 -.00000006  00000+0 -46724-4 0  9998
2 50482  87.9177 333.3817 0001367  91.5531 268.5758 13.18686459222995
ONEWEB-0403             
1 50483U 21132Q   26178.43755346  .00000037  00000+0  61474-4 0  9995
2 50483  87.9178 333.4160 0001923  90.8955 269.2397 13.18685795222943
ONEWEB-0404             
1 50484U 21132R   26178.47897367  .00000434  00000+0  11890-2 0  9996
2 50484  87.8883  19.0182 0002063  81.3983 278.7379 13.11416813217045
ONEWEB-0405             
1 50485U 21132S   26178.45101310  .00000029  00000+0  41152-4 0  9997
2 50485  87.9180 333.3981 0002112 103.9987 256.1380 13.18667129223343
ONEWEB-0406             
1 50486U 21132T   26178.44261045  .00000086  00000+0  18508-3 0  9990
2 50486  87.9175 333.4158 0002152  81.7544 278.3832 13.18686130222970
ONEWEB-0407             
1 50487U 21132U   26178.43587140  .00000053  00000+0  10236-3 0  9991
2 50487  87.9179 333.4095 0001746 100.8881 259.2447 13.18687741222913
ONEWEB-0409             
1 50488U 21132V   26178.55357950  .00000448  00000+0  12296-2 0  9994
2 50488  87.8887  18.9918 0002091  84.2567 275.8800 13.11414795216941
ONEWEB-0412             
1 50489U 21132W   26178.49993759 -.00000019  00000+0 -81834-4 0  9993
2 50489  87.9175 333.4049 0001560  93.6793 266.4518 13.18686006223019
ONEWEB-0413             
1 50490U 21132X   26178.42913051  .00000061  00000+0  12134-3 0  9996
2 50490  87.9167 333.4171 0001552  98.7922 261.3386 13.18686903222943
ONEWEB-0414             
1 50491U 21132Y   26178.41394741 -.00000013  00000+0 -65594-4 0  9993
2 50491  87.9178 333.4028 0001727  90.6547 269.4783 13.18686257222970
ONEWEB-0417             
1 50492U 21132Z   26178.42237595  .00000016  00000+0  70527-5 0  9992
2 50492  87.9169 333.4199 0002014  90.5466 269.5897 13.18686303222956
ONEWEB-0418             
1 50493U 21132AA  26178.43234637  .00000079  00000+0  16805-3 0  9994
2 50493  87.9174 333.4184 0002053  89.5211 270.6156 13.18685833223012
ONEWEB-0419             
1 50494U 21132AB  26178.50002315 -.00032297  00000+0 -82245-1 0  9997
2 50494  87.9173 333.4048 0002143  97.3048 134.9131 13.18684647  5101
ONEWEB-0420             
1 50495U 21132AC  26178.41562450 -.00000010  00000+0 -58038-4 0  9993
2 50495  87.9170 333.4232 0001783 101.8002 258.3330 13.18686748222921
ONEWEB-0421             
1 50496U 21132AD  26178.48476675  .00000091  00000+0  19735-3 0  9991
2 50496  87.9172 333.4077 0001581  85.2719 274.8593 13.18685867222977
ONEWEB-0424             
1 50497U 21132AE  26178.44598553  .00000073  00000+0  15122-3 0  9994
2 50497  87.9178 333.4137 0002190  98.0125 262.1256 13.18686038222990
ONEWEB-0426             
1 50498U 21132AF  26178.48054397  .00000012  00000+0 -11452-5 0  9990
2 50498  87.9178 333.3980 0001902  73.9596 286.1746 13.18684771222947
ONEWEB-0427             
1 50499U 21132AG  26178.44430031  .00000055  00000+0  10639-3 0  9990
2 50499  87.9179 333.3941 0001970  89.5748 270.5610 13.18685809222965
ONEWEB-0429             
1 50500U 21132AH  26178.50668094  .00000025  00000+0  29412-4 0  9999
2 50500  87.9172 333.4054 0001771  98.1470 261.9863 13.18686848222940
ONEWEB-0430             
1 50501U 21132AJ  26178.41900867  .00001282  00000+0  32185-2 0  9992
2 50501  87.9171 333.4214 0001798 103.5979 256.5353 13.18680733222976
ONEWEB-0432             
1 50502U 21132AK  26178.47422957  .00000065  00000+0  13532-3 0  9992
2 50502  87.9177 333.3942 0002398 103.9236 256.2162 13.17155427222934
ONEWEB-0440             
1 50503U 21132AL  26178.43923594  .00000086  00000+0  18611-3 0  9998
2 50503  87.9180 333.4141 0001507  94.5551 265.5753 13.18686495222920
ONEWEB-0450             
1 50504U 21132AM  26178.43263255  .00000084  00000+0  18003-3 0  9993
2 50504  87.9167 333.4195 0001788 100.9719 259.1614 13.18686702222953
ONEWEB-0410             
1 51622U 22012A   26178.46866447  .00000083  00000+0  18046-3 0  9994
2 51622  87.9144   3.8123 0002718  63.5710 296.5700 13.17649332215059
ONEWEB-0411             
1 51623U 22012B   26178.55068456 -.00000616  00000+0 -18010-2 0  9993
2 51623  87.8830  34.2029 0001920 101.6991 258.4352 13.10371661210643
ONEWEB-0415             
1 51624U 22012C   26178.54729161  .00000174  00000+0  46339-3 0  9993
2 51624  87.8832  34.2025 0002112  91.7549 268.3820 13.10369676210647
ONEWEB-0416             
1 51625U 22012D   26178.55917036  .00000735  00000+0  20678-2 0  9995
2 51625  87.8838  34.2168 0002262  90.9262 269.2124 13.10370842210689
ONEWEB-0422             
1 51626U 22012E   26178.47879054  .00000042  00000+0  74025-4 0  9992
2 51626  87.9140   3.8112 0001341 103.7826 256.3455 13.17649305215166
ONEWEB-0423             
1 51627U 22012F   26178.47202925  .00000048  00000+0  91663-4 0  9993
2 51627  87.9134   3.8175 0001844  86.5030 273.6312 13.17650703215058
ONEWEB-0425             
1 51628U 22012G   26178.34027949  .00000932  00000+0  26323-2 0  9992
2 51628  87.8830  34.2447 0002053  75.9832 284.1523 13.10368716210651
ONEWEB-0428             
1 51629U 22012H   26178.54898844  .00000587  00000+0  16445-2 0  9995
2 51629  87.8822  34.2104 0001613  98.4283 261.7028 13.10367791210646
ONEWEB-0431             
1 51630U 22012J   26178.51828683  .00000629  00000+0  17649-2 0  9992
2 51630  87.8825  34.2084 0001975 103.8575 256.2772 13.10371969210696
ONEWEB-0434             
1 51631U 22012K   26178.34378949  .00000253  00000+0  68800-3 0  9998
2 51631  87.8833  34.2690 0002195  68.0523 292.0838 13.10370452210652
ONEWEB-0435             
1 51632U 22012L   26178.50314264  .00000564  00000+0  15783-2 0  9993
2 51632  87.8822  34.2222 0001628  93.3166 266.8147 13.10375521210661
ONEWEB-0436             
1 51633U 22012M   26178.46359594  .00000036  00000+0  58310-4 0  9993
2 51633  87.9140   3.8014 0001720  95.1812 264.9515 13.17649724215038
ONEWEB-0438             
1 51634U 22012N   26178.56425904  .00000122  00000+0  31377-3 0  9993
2 51634  87.8830  34.2140 0002008  80.6077 279.5278 13.10375258210702
ONEWEB-0439             
1 51635U 22012P   26178.33858207  .00000677  00000+0  19022-2 0  9992
2 51635  87.8826  34.2463 0001771  82.3576 277.7752 13.10373619210655
ONEWEB-0442             
1 51636U 22012Q   26178.53196054  .00000894  00000+0  22689-2 0  9994
2 51636  87.9131   3.8200 0002198  77.0307 283.1070 13.17644814215030
ONEWEB-0443             
1 51637U 22012R   26178.47540013  .00000018  00000+0  13885-4 0  9994
2 51637  87.9130   3.8321 0001617  81.7694 278.3621 13.17650427215079
ONEWEB-0444             
1 51638U 22012S   26178.55746917 -.00000491  00000+0 -14416-2 0  9991
2 51638  87.8824  34.2012 0001670  81.6432 278.4885 13.10375311210697
ONEWEB-0445             
1 51639U 22012T   26178.50144609  .00000489  00000+0  13633-2 0  9992
2 51639  87.8836  34.2009 0002106  88.9580 271.1789 13.10373809210699
ONEWEB-0446             
1 51640U 22012U   26178.55576219 -.00000524  00000+0 -15386-2 0  9994
2 51640  87.8825  34.2187 0002106  87.4609 272.6759 13.10383301210682
ONEWEB-0448             
1 51641U 22012V   26178.56085875 -.00000371  00000+0 -11002-2 0  9990
2 51641  87.8825  34.2137 0001727  83.4421 276.6903 13.10361609210653
ONEWEB-0449             
1 51642U 22012W   26178.56595345  .00000677  00000+0  19023-2 0  9997
2 51642  87.8832  34.1989 0002285  73.3369 286.8009 13.10377385210664
ONEWEB-0451             
1 51643U 22012X   26178.46023142  .00000050  00000+0  94594-4 0  9991
2 51643  87.9142   3.8000 0001897  82.6219 277.5128 13.17649844215014
ONEWEB-0452             
1 51644U 22012Y   26178.53446807  .00000078  00000+0  16651-3 0  9994
2 51644  87.9132   3.8208 0001703  80.3141 279.8183 13.17649592215037
